     2.100          NAVIGATION                              RINEX VERSION / TYPE
fic2rin                                 12/16/2015 00:04:14 PGM / RUN BY / DATE
                                                            END OF HEADER
14 15 12 15 19 59 44.0  .152732245624D-04 -.238742359215D-11  .000000000000D+00
     .400000000000D+01 -.728125000000D+01  .467055169008D-08  .242160306578D+01
    -.478699803352D-06  .832037022337D-02  .685825943947D-05  .515369118690D+04
     .244784000000D+06  .633299350739D-07  .288707395111D+01 -.121071934700D-06
     .965296027426D+00  .246562500000D+03 -.194728980620D+01 -.794175937758D-08
    -.444661379074D-09  .100000000000D+01  .187500000000D+04  .000000000000D+00
     .240000000000D+01  .000000000000D+00 -.931322574615D-08  .400000000000D+01
     .239706000000D+06  .400000000000D+01
 3 15 12 15 19 59 44.0  .179884955287D-05 -.522959453519D-11  .000000000000D+00
     .300000000000D+01  .272187500000D+02  .485234497679D-08  .287173118082D+01
     .147521495819D-05  .396487652324D-03  .774674117565D-05  .515353807640D+04
     .244784000000D+06 -.372529029846D-07  .176369339853D+01 -.502914190292D-07
     .958766114103D+00  .231781250000D+03 -.309506826867D+01 -.811640950961D-08
     .427517807833D-09  .100000000000D+01  .187500000000D+04  .000000000000D+00
     .240000000000D+01  .000000000000D+00  .186264514923D-08  .300000000000D+01
     .243756000000D+06  .400000000000D+01
 3 15 12 15 21 59 44.0  .176066532731D-05 -.522959453519D-11  .000000000000D+00
     .400000000000D+01  .223125000000D+02  .483591572101D-08 -.236193556737D+01
     .113807618618D-05  .397767755203D-03  .823102891445D-05  .515353560257D+04
     .251984000000D+06  .223517417908D-07  .176363523437D+01 -.372529029846D-07
     .958769392502D+00  .223718750000D+03 -.309431990415D+01 -.806783605776D-08
     .425017703693D-09  .100000000000D+01  .187500000000D+04  .000000000000D+00
     .240000000000D+01  .000000000000D+00  .186264514923D-08  .400000000000D+01
     .244806000000D+06  .400000000000D+01
14 15 12 15 21 59 44.0  .152559950948D-04 -.238742359215D-11  .000000000000D+00
     .900000000000D+01 -.334375000000D+01  .471269630272D-08 -.281142037003D+01
    -.912696123123D-07  .831971550360D-02  .703707337379D-05  .515369241905D+04
     .251984000000D+06  .163912773132D-06  .288701637212D+01 -.428408384323D-07
     .965292901170D+00  .243937500000D+03 -.194728032795D+01 -.796818904991D-08
    -.372158359032D-09  .100000000000D+01  .187500000000D+04  .000000000000D+00
     .240000000000D+01  .000000000000D+00 -.931322574615D-08  .900000000000D+01
     .244806000000D+06  .400000000000D+01
 1 15 12 15 22  0  0.0  .673718750477D-05  .909494701773D-12  .000000000000D+00
     .880000000000D+02 -.750625000000D+02  .425160566787D-08  .135273771656D+01
    -.393949449062D-05  .487961678300D-02  .106040388346D-04  .515366164017D+04
     .252000000000D+06 -.409781932831D-07  .722476491486D+00  .204890966415D-07
     .963421177948D+00  .176562500000D+03  .492634150727D+00 -.787854245863D-08
     .892894335490D-10  .100000000000D+01  .187500000000D+04  .000000000000D+00
     .240000000000D+01  .000000000000D+00  .512227416039D-08  .880000000000D+02
     .244806000000D+06  .400000000000D+01
 2 15 12 15 22  0  0.0  .597923994064D-03  .682121026330D-12  .000000000000D+00
     .680000000000D+02 -.754062500000D+02  .462126392276D-08  .191235195483D+01
    -.396743416786D-05  .151018439792D-01  .108703970909D-04  .515369259262D+04
     .252000000000D+06 -.292435288429D-06  .680499846350D+00 -.281259417534D-06
     .942152471769D+00  .160593750000D+03 -.220259715026D+01 -.804854954011D-08
     .176793078427D-09  .100000000000D+01  .187500000000D+04  .000000000000D+00
     .240000000000D+01  .000000000000D+00 -.204890966415D-07  .680000000000D+02
     .244806000000D+06  .400000000000D+01
 5 15 12 15 22  0  0.0 -.164715573192D-03  .363797880709D-11  .000000000000D+00
     .630000000000D+02  .361562500000D+02  .511307012275D-08 -.195116650985D+01
     .160373747349D-05  .455905357376D-02  .762753188610D-05  .515369172859D+04
     .252000000000D+06 -.558793544769D-08  .175392233169D+01 -.428408384323D-07
     .945904871272D+00  .223031250000D+03  .482985072233D+00 -.824391482071D-08
     .466448000860D-09  .100000000000D+01  .187500000000D+04  .000000000000D+00
     .240000000000D+01  .000000000000D+00 -.107102096081D-07  .630000000000D+02
     .244806000000D+06  .400000000000D+01
 6 15 12 15 22  0  0.0  .112764537334D-03  .648014975013D-11  .000000000000D+00
     .170000000000D+02 -.649375000000D+02  .413624371972D-08 -.299203089167D+01
    -.329688191414D-05  .230748788454D-03  .105574727058D-04  .515360670853D+04
     .252000000000D+06  .000000000000D+00  .714020707954D+00 -.931322574615D-08
     .963283058000D+00  .176343750000D+03 -.301134405966D+01 -.782461164077D-08
     .188579283656D-09  .100000000000D+01  .187500000000D+04  .000000000000D+00
     .240000000000D+01  .000000000000D+00  .419095158577D-08  .170000000000D+02
     .244806000000D+06  .400000000000D+01
 7 15 12 15 22  0  0.0  .477250665426D-03 -.125055521494D-11  .000000000000D+00
     .560000000000D+02  .407500000000D+02  .428017828661D-08  .680818371892D+00
     .229291617870D-05  .900206028018D-02  .100880861282D-04  .515368844032D+04
     .252000000000D+06 -.353902578354D-07 -.240132604398D+01  .137835741043D-06
     .968394983847D+00  .188000000000D+03 -.267799450529D+01 -.796997483859D-08
    -.338942689752D-09  .100000000000D+01  .187500000000D+04  .000000000000D+00
     .340000000000D+01  .000000000000D+00 -.111758708954D-07  .560000000000D+02
     .244806000000D+06  .400000000000D+01
 8 15 12 15 22  0  0.0 -.163405202329D-04 -.147792889038D-11  .000000000000D+00
     .180000000000D+02 -.683750000000D+02  .468305221078D-08 -.141338166452D+01
    -.345893204212D-05  .163244083524D-02  .350363552570D-05  .515361789131D+04
     .252000000000D+06 -.149011611938D-07 -.336019141415D+00  .856816768646D-07
     .961757993698D+00  .313812500000D+03 -.158751703279D+01 -.843820862812D-08
    -.115361948145D-09  .100000000000D+01  .187500000000D+04  .000000000000D+00
     .240000000000D+01  .000000000000D+00  .465661287308D-08  .180000000000D+02
     .244806000000D+06  .400000000000D+01
 9 15 12 15 22  0  0.0  .293129123747D-04  .807176547823D-11  .000000000000D+00
     .210000000000D+02 -.465625000000D+01  .505949646262D-08 -.284785356945D+01
    -.216066837311D-06  .499581452459D-03  .622868537903D-05  .515366889572D+04
     .252000000000D+06  .931322574615D-08  .280480336188D+01  .409781932831D-07
     .956206238605D+00  .258968750000D+03  .195608591568D+01 -.827748764773D-08
    -.263582407837D-09  .100000000000D+01  .187500000000D+04  .000000000000D+00
     .240000000000D+01  .000000000000D+00  .931322574615D-09  .210000000000D+02
     .244806000000D+06  .400000000000D+01
10 15 12 15 22  0  0.0  .429362989962D-04  .534328137292D-11  .000000000000D+00
     .490000000000D+02  .296562500000D+02  .478198490315D-08 -.688670113623D+00
     .154227018356D-05  .914683216251D-03  .827759504318D-05  .515368085098D+04
     .252000000000D+06  .596046447754D-07  .175949113270D+01  .335276126862D-07
     .959042776781D+00  .217812500000D+03 -.295567352115D+01 -.808247952486D-08
     .460733477113D-09  .100000000000D+01  .187500000000D+04  .000000000000D+00
     .240000000000D+01  .000000000000D+00  .325962901115D-08  .490000000000D+02
     .244806000000D+06  .400000000000D+01
11 15 12 15 22  0  0.0 -.621913932264D-03 -.204636307899D-11  .000000000000D+00
     .930000000000D+02 -.106687500000D+03  .601417908613D-08  .791989820641D+00
    -.567547976971D-05  .162522012834D-01  .833533704281D-05  .515364626503D+04
     .252000000000D+06 -.184401869774D-06  .357249735651D+00 -.158324837685D-06
     .895284106531D+00  .189000000000D+03  .148907156546D+01 -.905859161242D-08
    -.130005415247D-09  .100000000000D+01  .187500000000D+04  .000000000000D+00
     .240000000000D+01  .000000000000D+00 -.121071934700D-07  .930000000000D+02
     .244806000000D+06  .400000000000D+01
12 15 12 15 22  0  0.0  .353573355824D-03  .295585778076D-11  .000000000000D+00
     .480000000000D+02  .687187500000D+02  .403231081907D-08  .286848783878D+00
     .356324017048D-05  .561523111537D-02  .425800681114D-05  .515356158638D+04
     .252000000000D+06  .502914190292D-07 -.132829447083D+01  .160187482834D-06
     .990028429149D+00  .312406250000D+03  .638988368202D+00 -.809247994141D-08
     .163935399996D-09  .100000000000D+01  .187500000000D+04  .000000000000D+00
     .240000000000D+01  .000000000000D+00 -.125728547573D-07  .480000000000D+02
     .244806000000D+06  .400000000000D+01
13 15 12 15 22  0  0.0 -.171611551195D-03 -.272848410532D-11  .000000000000D+00
     .160000000000D+02 -.493750000000D+01  .450875923649D-08  .161420036304D+01
    -.303611159325D-06  .465191900730D-02  .737980008125D-05  .515368229294D+04
     .252000000000D+06  .372529029846D-07  .292296623364D+01 -.521540641785D-07
     .972828020615D+00  .243343750000D+03  .200929574259D+01 -.794818821680D-08
    -.418588864478D-09  .100000000000D+01  .187500000000D+04  .000000000000D+00
     .240000000000D+01  .000000000000D+00 -.111758708954D-07  .160000000000D+02
     .244806000000D+06  .400000000000D+01
15 15 12 15 22  0  0.0 -.287353992462D-03 -.193267624127D-11  .000000000000D+00
     .370000000000D+02 -.978125000000D+01  .554630245433D-08  .271788001875D+01
    -.510364770889D-06  .790481048170D-02  .644661486149D-05  .515376218033D+04
     .252000000000D+06 -.119209289551D-06  .275628575107D+01 -.856816768646D-07
     .931955261277D+00  .240843750000D+03  .452077453378D+00 -.838999233400D-08
    -.323227749447D-09  .100000000000D+01  .187500000000D+04  .000000000000D+00
     .240000000000D+01  .000000000000D+00 -.107102096081D-07  .370000000000D+02
     .244806000000D+06  .400000000000D+01
